{"type": "FeatureCollection", "features": [ {"type": "Feature", "properties": {"norad_id": 66717, "name": "FLOCK 4H-14", "group": "last-30-days", "lat": 25.62831106047446, "lon": 68.28162502787359, "alt_km": 510.2299463138743, "timestamp": "2025-12-26T07:29:17.192587+00:00", "meta": {"OBJECT_NAME": "FLOCK 4H-14", "OBJECT_ID": "2025-276BD", "EPOCH": "2025-12-25T21:53:05.088480", "MEAN_MOTION": 15.18384653, "ECCENTRICITY": 0.00017553, "INCLINATION": 97.4408, "RA_OF_ASC_NODE": 71.4826, "ARG_OF_PERICENTER": 130.1728, "MEAN_ANOMALY": 229.966, "EPHEMERIS_TYPE": 0, "CLASSIFICATION_TYPE": "U", "NORAD_CAT_ID": 66717, "ELEMENT_SET_NO": 999, "REV_AT_EPOCH": 337, "BSTAR": 0.00030287246, "MEAN_MOTION_DOT": 6.16e-05, "MEAN_MOTION_DDOT": 0}, "tle": {"line1": "1 66717U 25276BD  25359.91186445  .00006160  00000+0  30287-3 0  9996", "line2": "2 66717  97.4408  71.4826 0001755 130.1728 229.9660 15.18384653  3370"}}, "geometry": {"type": "Point", "coordinates": [68.28162502787359, 25.62831106047446]}}, {"type": "Feature", "properties": {"norad_id": 66718, "name": "FLOCK 4H-15", "group": "last-30-days", "lat": -82.50144326906695, "lon": 168.60348640118409, "alt_km": 519.8069806401818, "timestamp": "2025-12-26T07:29:17.192599+00:00", "meta": {"OBJECT_NAME": "FLOCK 4H-15", "OBJECT_ID": "2025-276BE", "EPOCH": "2025-12-25T22:23:26.115360", "MEAN_MOTION": 15.17139136, "ECCENTRICITY": 0.00030992, "INCLINATION": 97.4417, "RA_OF_ASC_NODE": 71.4586, "ARG_OF_PERICENTER": 253.102, "MEAN_ANOMALY": 106.9874, "EPHEMERIS_TYPE": 0, "CLASSIFICATION_TYPE": "U", "NORAD_CAT_ID": 66718, "ELEMENT_SET_NO": 999, "REV_AT_EPOCH": 412, "BSTAR": 0.00034321709, "MEAN_MOTION_DOT": 6.744e-05, "MEAN_MOTION_DDOT": 0}, "tle": {"line1": "1 66718U 25276BE  25359.93294115  .00006744  00000+0  34322-3 0  9995", "line2": "2 66718  97.4417  71.4586 0003099 253.1020 106.9874 15.17139136  4126"}}, "geometry": {"type": "Point", "coordinates": [168.60348640118409, -82.50144326906695]}}, {"type": "Feature", "properties": {"norad_id": 66719, "name": "FLOCK 4H-16", "group": "last-30-days", "lat": -77.77334286199215, "lon": 108.95086748279793, "alt_km": 519.9895117498309, "timestamp": "2025-12-26T07:29:17.192609+00:00", "meta": {"OBJECT_NAME": "FLOCK 4H-16", "OBJECT_ID": "2025-276BF", "EPOCH": "2025-12-25T22:00:01.999584", "MEAN_MOTION": 15.17266901, "ECCENTRICITY": 0.00031887, "INCLINATION": 97.4435, "RA_OF_ASC_NODE": 71.4531, "ARG_OF_PERICENTER": 235.1338, "MEAN_ANOMALY": 46.7018, "EPHEMERIS_TYPE": 0, "CLASSIFICATION_TYPE": "U", "NORAD_CAT_ID": 66719, "ELEMENT_SET_NO": 999, "REV_AT_EPOCH": 354, "BSTAR": -0.0011742205, "MEAN_MOTION_DOT": -0.00023354, "MEAN_MOTION_DDOT": 0}, "tle": {"line1": "1 66719U 25276BF  25359.91668981 -.00023354  00000+0 -11742-2 0  9998", "line2": "2 66719  97.4435  71.4531 0003188 235.1338  46.7018 15.17266901  3545"}}, "geometry": {"type": "Point", "coordinates": [108.95086748279793, -77.77334286199215]}}, {"type": "Feature", "properties": {"norad_id": 66720, "name": "FLOCK 4H-17", "group": "last-30-days", "lat": 0.43953618637201874, "lon": 71.82073734421805, "alt_km": 516.4780704710975, "timestamp": "2025-12-26T07:29:17.192619+00:00", "meta": {"OBJECT_NAME": "FLOCK 4H-17", "OBJECT_ID": "2025-276BG", "EPOCH": "2025-12-25T21:59:40.656192", "MEAN_MOTION": 15.18105275, "ECCENTRICITY": 0.00027921, "INCLINATION": 97.4433, "RA_OF_ASC_NODE": 71.4891, "ARG_OF_PERICENTER": 174.1191, "MEAN_ANOMALY": 186.0076, "EPHEMERIS_TYPE": 0, "CLASSIFICATION_TYPE": "U", "NORAD_CAT_ID": 66720, "ELEMENT_SET_NO": 999, "REV_AT_EPOCH": 412, "BSTAR": 0.0005225996, "MEAN_MOTION_DOT": 0.00010599, "MEAN_MOTION_DDOT": 0}, "tle": {"line1": "1 66720U 25276BG  25359.91644278  .00010599  00000+0  52260-3 0  9999", "line2": "2 66720  97.4433  71.4891 0002792 174.1191 186.0076 15.18105275  4127"}}, "geometry": {"type": "Point", "coordinates": [71.82073734421805, 0.43953618637201874]}}, {"type": "Feature", "properties": {"norad_id": 66721, "name": "FLOCK 4H-18", "group": "last-30-days", "lat": -82.15061002691658, "lon": 143.18532101334176, "alt_km": 520.096366816434, "timestamp": "2025-12-26T07:29:17.192629+00:00", "meta": {"OBJECT_NAME": "FLOCK 4H-18", "OBJECT_ID": "2025-276BH", "EPOCH": "2025-12-25T22:22:33.160800", "MEAN_MOTION": 15.17173086, "ECCENTRICITY": 0.0002409, "INCLINATION": 97.4377, "RA_OF_ASC_NODE": 71.4429, "ARG_OF_PERICENTER": 266.7806, "MEAN_ANOMALY": 93.3152, "EPHEMERIS_TYPE": 0, "CLASSIFICATION_TYPE": "U", "NORAD_CAT_ID": 66721, "ELEMENT_SET_NO": 999, "REV_AT_EPOCH": 412, "BSTAR": 0.00030606161, "MEAN_MOTION_DOT": 6.012e-05, "MEAN_MOTION_DDOT": 0}, "tle": {"line1": "1 66721U 25276BH  25359.93232825  .00006012  00000+0  30606-3 0  9998", "line2": "2 66721  97.4377  71.4429 0002409 266.7806  93.3152 15.17173086  4127"}}, "geometry": {"type": "Point", "coordinates": [143.18532101334176, -82.15061002691658]}}, {"type": "Feature", "properties": {"norad_id": 66722, "name": "FLOCK 4H-19", "group": "last-30-days", "lat": 18.15334073421882, "lon": 69.40728602309183, "alt_km": 512.3857807935292, "timestamp": "2025-12-26T07:29:17.192654+00:00", "meta": {"OBJECT_NAME": "FLOCK 4H-19", "OBJECT_ID": "2025-276BJ", "EPOCH": "2025-12-25T21:55:03.021024", "MEAN_MOTION": 15.18323467, "ECCENTRICITY": 0.00025932, "INCLINATION": 97.438, "RA_OF_ASC_NODE": 71.4702, "ARG_OF_PERICENTER": 146.5429, "MEAN_ANOMALY": 213.5969, "EPHEMERIS_TYPE": 0, "CLASSIFICATION_TYPE": "U", "NORAD_CAT_ID": 66722, "ELEMENT_SET_NO": 999, "REV_AT_EPOCH": 341, "BSTAR": 0.00077214762, "MEAN_MOTION_DOT": 0.00015801, "MEAN_MOTION_DDOT": 0}, "tle": {"line1": "1 66722U 25276BJ  25359.91322941  .00015801  00000+0  77215-3 0  9999", "line2": "2 66722  97.4380  71.4702 0002593 146.5429 213.5969 15.18323467  3410"}}, "geometry": {"type": "Point", "coordinates": [69.40728602309183, 18.15334073421882]}}, {"type": "Feature", "properties": {"norad_id": 66723, "name": "FLOCK 4H-20", "group": "last-30-days", "lat": 22.123077082077074, "lon": 68.83324618945788, "alt_km": 512.1789294691553, "timestamp": "2025-12-26T07:29:17.192667+00:00", "meta": {"OBJECT_NAME": "FLOCK 4H-20", "OBJECT_ID": "2025-276BK", "EPOCH": "2025-12-25T21:54:00.216000", "MEAN_MOTION": 15.18353201, "ECCENTRICITY": 0.00030873, "INCLINATION": 97.4416, "RA_OF_ASC_NODE": 71.4861, "ARG_OF_PERICENTER": 161.2143, "MEAN_ANOMALY": 198.9205, "EPHEMERIS_TYPE": 0, "CLASSIFICATION_TYPE": "U", "NORAD_CAT_ID": 66723, "ELEMENT_SET_NO": 999, "REV_AT_EPOCH": 337, "BSTAR": 0.00044290833, "MEAN_MOTION_DOT": 9.035e-05, "MEAN_MOTION_DDOT": 0}, "tle": {"line1": "1 66723U 25276BK  25359.91250250  .00009035  00000+0  44291-3 0  9993", "line2": "2 66723  97.4416  71.4861 0003087 161.2143 198.9205 15.18353201  3376"}}, "geometry": {"type": "Point", "coordinates": [68.83324618945788, 22.123077082077074]}}, {"type": "Feature", "properties": {"norad_id": 66724, "name": "FLOCK 4H-21", "group": "last-30-days", "lat": 25.67218088038717, "lon": 68.26441793473329, "alt_km": 511.05213360779453, "timestamp": "2025-12-26T07:29:17.192677+00:00", "meta": {"OBJECT_NAME": "FLOCK 4H-21", "OBJECT_ID": "2025-276BL", "EPOCH": "2025-12-25T20:18:10.849824", "MEAN_MOTION": 15.18399369, "ECCENTRICITY": 0.00025776, "INCLINATION": 97.4382, "RA_OF_ASC_NODE": 71.4065, "ARG_OF_PERICENTER": 158.217, "MEAN_ANOMALY": 201.9174, "EPHEMERIS_TYPE": 0, "CLASSIFICATION_TYPE": "U", "NORAD_CAT_ID": 66724, "ELEMENT_SET_NO": 999, "REV_AT_EPOCH": 336, "BSTAR": 0.00050695103, "MEAN_MOTION_DOT": 0.00010367, "MEAN_MOTION_DDOT": 0}, "tle": {"line1": "1 66724U 25276BL  25359.84595891  .00010367  00000+0  50695-3 0  9994", "line2": "2 66724  97.4382  71.4065 0002577 158.2170 201.9174 15.18399369  3368"}}, "geometry": {"type": "Point", "coordinates": [68.26441793473329, 25.67218088038717]}}, {"type": "Feature", "properties": {"norad_id": 66725, "name": "FLOCK 4H-22", "group": "last-30-days", "lat": -56.983068016779285, "lon": 83.42050279008295, "alt_km": 519.561792220884, "timestamp": "2025-12-26T07:29:17.192687+00:00", "meta": {"OBJECT_NAME": "FLOCK 4H-22", "OBJECT_ID": "2025-276BM", "EPOCH": "2025-12-25T22:14:49.113312", "MEAN_MOTION": 15.17529245, "ECCENTRICITY": 0.00014655, "INCLINATION": 97.437, "RA_OF_ASC_NODE": 71.4461, "ARG_OF_PERICENTER": 271.3797, "MEAN_ANOMALY": 88.7268, "EPHEMERIS_TYPE": 0, "CLASSIFICATION_TYPE": "U", "NORAD_CAT_ID": 66725, "ELEMENT_SET_NO": 999, "REV_AT_EPOCH": 412, "BSTAR": 0.00028923847, "MEAN_MOTION_DOT": 5.736e-05, "MEAN_MOTION_DDOT": 0}, "tle": {"line1": "1 66725U 25276BM  25359.92695733  .00005736  00000+0  28924-3 0  9994", "line2": "2 66725  97.4370  71.4461 0001465 271.3797  88.7268 15.17529245  4120"}}, "geometry": {"type": "Point", "coordinates": [83.42050279008295, -56.983068016779285]}}, {"type": "Feature", "properties": {"norad_id": 66726, "name": "FLOCK 4H-23", "group": "last-30-days", "lat": -78.0025877405816, "lon": 109.81097488550145, "alt_km": 520.001408669219, "timestamp": "2025-12-26T07:29:17.192701+00:00", "meta": {"OBJECT_NAME": "FLOCK 4H-23", "OBJECT_ID": "2025-276BN", "EPOCH": "2025-12-25T22:20:45.476160", "MEAN_MOTION": 15.17259062, "ECCENTRICITY": 0.00035136, "INCLINATION": 97.4437, "RA_OF_ASC_NODE": 71.4675, "ARG_OF_PERICENTER": 228.0349, "MEAN_ANOMALY": 132.0586, "EPHEMERIS_TYPE": 0, "CLASSIFICATION_TYPE": "U", "NORAD_CAT_ID": 66726, "ELEMENT_SET_NO": 999, "REV_AT_EPOCH": 412, "BSTAR": 0.00032368195, "MEAN_MOTION_DOT": 6.378e-05, "MEAN_MOTION_DDOT": 0}, "tle": {"line1": "1 66726U 25276BN  25359.93108190  .00006378  00000+0  32368-3 0  9992", "line2": "2 66726  97.4437  71.4675 0003513 228.0349 132.0586 15.17259062  4123"}}, "geometry": {"type": "Point", "coordinates": [109.81097488550145, -78.0025877405816]}}]}